#dP2022  5  9 12  0  0.00000000      96 __u+U ITR00 EXT  IAC
## 2209 129600.00000000   900.00000000 59708 0.5000000000000
+  115   C06C07C08C09C10C11C12C13C14C16C19C20C21C22C23C24C25
+        C26C27C28C29C30C32C33C34C35C36C37C38C39C40C41C42C43
+        C44C45C46E02E03E04E05E07E08E09E10E11E12E13E14E15E18
+        E19E21E24E25E26E27E30E31E33E34E36G01G02G03G04G05G06
+        G07G08G09G10G11G12G13G14G15G16G17G18G19G20G21G22G23
+        G24G25G26G27G28G29G30G31G32J03R01R02R03R04R05R07R08
+        R09R11R12R13R14R15R17R18R19R20R21R22R24  0  0  0  0
++        10 11  8 10  9  9  8  9  8  9  8  8  8 10  9  9  9
++         8  9  8  9  9  8 10  9  7  9  7 10 10  8  9  8  8
++         9  8  9  7  8  7  7  7  7  8  7  8  7  8  8  7  7
++         8  7  6  6  7  8  7  6  7  9  8  6  7  6  7  7  7
++         7  6  8  8  8  6  8  6  6  8  7  7  8  8  8  8  7
++         8  8  7  8  8  7  7  7  8  8  8 10  8  8  8  7 10
++         8  9  8  8  9  7  8  8  9  9  8  9  8  0  0  0  0
%c M  cc GPS ccc cccc cccc cccc cccc ccccc ccccc ccccc ccccc
%c cc cc ccc ccc cccc cccc cccc cccc ccccc ccccc ccccc ccccc
%f  0.0000000  0.000000000  0.00000000000  0.000000000000000
%f  0.0000000  0.000000000  0.00000000000  0.000000000000000
%i    0    0    0    0      0      0      0      0         0
%i    0    0    0    0      0      0      0      0         0
/* IAC                                ULTRA-RAPID PREDICTION
/* S/V CLOCKS ARE ALIGNED TO GNSS TIME                      
/* G:C1WC2W R:C1PC2P E:C1XC5X C:C2IC6I J:C1CC2S             
/* PCV:IGS14_2196 OL/AL:FES2004  NONE     YN ORB:CoN CLK:CoN
*  2022 05 09 18 30  0.00000000
PC06  -3222.905988  26040.522123  33068.483063    -48.064468
PC07 -18269.346471  32633.908421 -19629.701150   -145.064382
PC08  -6411.483022  39941.958116 -11641.724519    304.113314
PC09   5820.604630  29722.746482  29893.657894   -772.114450
PC10 -10699.361248  32538.244501 -24637.119379    133.039405
PC11  21308.030916  16895.472909  -6145.189065    342.086921
PC12   5829.590690  18428.183618 -20095.546027   -618.584621
PC13   -985.773839  41837.003935  -3626.537147    -37.565324
PC14  13767.980559   9580.127326  22318.679812    471.370415
PC16  -6091.354053  24211.050957  34186.040211    129.506812
PC19 -21090.203397  -1553.373470 -18189.718264    871.440206
PC20  -6092.437465 -14729.528326 -22883.362330   -908.362909
PC21 -13625.519961  19896.691845  14090.944669   -260.685904
PC22 -24545.344215  13019.965550  -2782.218804   -971.671323
PC23  14954.614035 -10259.580841 -21204.692356   -930.128474
PC24   6015.555392  26227.653649  -7359.567050   -962.301799
PC25  15517.858144  10060.657744 -20898.544001   -739.074199
PC26  -4886.292278  26039.006275   8701.325259    740.211476
PC27   4030.259438 -15711.710288  22682.303855    720.625044
PC28  20476.133650  -3402.652730  18650.285098     64.834560
PC29 -25672.036547 -10446.443620  -3240.497194    552.426414
PC30 -15039.678977 -18681.009437  14237.020036    498.245497
PC32  13504.866368 -19975.677478 -14013.064607   -962.888376
PC33  21032.698813   1578.615434  18271.983757   -965.774168
PC34  15902.822245  18604.277180 -13445.312016   -407.259131
PC35 -21002.076277   3426.329070 -18046.650636    266.418208
PC36 -15161.977326 -11002.007146  20707.797948   -963.986716
PC37   6202.318017 -25420.060168  -9712.732114   -913.687914
PC38 -10873.331463  36469.632670 -17979.848470    230.973887
PC39 -11844.258650  21046.758994  34592.283875     34.981662
PC40 -25654.415271  27642.698461 -19057.357626    267.685752
PC41  24608.841813 -12739.747644   3326.148550   -965.786913
PC42   5040.718627  15399.443248  22771.184102   -965.749438
PC43  25532.032421  11009.385757   2525.051833   -925.087557
PC44  -3710.888722  15913.582074 -22639.874846    654.270413
PC45 -14766.146382  10552.577756  21194.979058    752.711677
PC46  -6908.571392 -25605.269935   8742.004204   -315.691865
PE02  12583.378505 -26720.303901   2079.875487    298.096989
PE03  11087.764794 -16134.171957 -22193.186662   -556.541550
PE04  11203.777436  15512.263876  22595.393346  -1024.331131
PE05  27329.031406  -7275.686170  -8724.316246   -183.185336
PE07 -27431.134223  -5657.947117  -9582.639401   -666.834123
PE08 -11581.659228 -15243.970588 -22571.646813   -526.259547
PE09  27480.127840   5450.503750   9539.942909   -512.538955
PE10  18572.170138  22419.892054   5345.779094   -511.934625
PE11  20894.353454  14905.365922  14751.490542   3719.898262
PE12  13313.216568  26091.600056  -4357.300946   4622.053951
PE13 -20845.752938 -15447.417104 -14237.171371    428.566027
PE14  -3672.959333 -15863.047950  18328.008665  -1843.054861
PE15 -13286.119688 -26056.409938   4515.208451    746.677746
PE18  -5029.398180  19715.584332 -24391.670680  -1468.436436
PE19 -13739.701361  15369.820125  21253.132091  -4387.281103
PE21 -19924.215150  15969.399065  14968.023834   -733.218340
PE24  15713.965832   5937.344683 -24387.641055   -605.842201
PE25  19958.855360 -15733.425497 -15175.244784   -573.342188
PE26 -15736.157628   5188.060805 -24527.910218  -1125.329551
PE27 -16258.050224  -4603.803688  24302.915119   -294.962489
PE30  -2200.501305 -22913.947886  18604.940067   -496.979965
PE31   3059.733612  22272.967076 -19248.058402   -496.363650
PE33  -2058.744425  21256.617728 -20502.468415   -456.806926
PE34   1859.399707 -21375.572155  20382.100907   -516.218383
PE36  16117.589263  -4130.786927  24481.359623   -371.292955
PG01  16644.960388   4631.972843  19982.231234    366.633284
PG02 -14915.217174 -21549.224257  -3118.037814   -653.276573
PG03  18813.545662  -6454.375511  17435.400100   -238.196392
PG04  26399.396882    713.970465  -3226.202682   -168.788903
PG05 -12354.794141  -9061.956863 -21855.599711    -81.246621
PG06  -4209.930058 -24266.408408   9900.207343    297.054981
PG07  10255.861262 -12589.812462 -20524.606138    321.890465
PG08  25348.118806   5822.380280  -6288.500512    -67.328366
PG09  21980.551165  -7796.480411 -12799.774534   -337.987357
PG10 -10377.380083  23365.171786   6760.524938   -408.287116
PG11 -12891.401635 -22752.448303  -4693.217036    -27.146561
PG12 -17934.912656   1334.822896  19234.888795   -212.909161
PG13 -19376.631290 -13196.595049 -12799.082235    308.615857
PG14  12164.027090 -22902.409368   5517.070876   -107.478668
PG15 -25941.803392  -3193.740303  -5995.476685    -62.555057
PG16   7695.632355  13857.592918 -21513.075690   -499.399213
PG17   6633.004097 -14008.484821  22005.140241    610.613334
PG18 -10372.962354  12169.416182 -21194.219982    174.514429
PG19  -1991.751287 -15123.480543  21506.451736    155.145661
PG20  -5654.011986 -18685.810716 -18105.282348    515.443947
PG21  19070.186481  13431.691089  13955.619329    160.994132
PG22   5112.406221  15810.303709  21172.684662    256.445623
PG23 -16573.242146  20242.731408  -4270.708354    -20.768358
PG24 -18899.299988  -7779.864909  16875.826006    243.966851
PG25 -18929.935580  15193.209797  10166.509360    322.583104
PG26   -183.653898  21717.419023 -15166.907594    204.473064
PG27  17164.879833  12533.625109 -16385.806523    200.005722
PG28   5854.854807 -22174.296505  14104.127764    360.736066
PG29 -22796.085031   5113.336491 -12750.238257   -511.886976
PG30   3627.226819 -20618.880736 -16116.764806   -527.239755
PG31   5560.498322  24684.327575   7116.219918   -176.916531
PG32  -3296.917028  15093.911130  21737.732863   -123.350109
PJ03 -24227.751673  17833.478578 -24943.358415     -2.045151
PR01 -20710.392547  12694.923010   7820.156361      8.548529
PR02  -4321.174111  12622.265333  21776.752653    517.862015
PR03  13567.044225   5404.187138  20978.007395     56.358619
PR04  23555.554645  -4721.363084   8617.329291    140.704112
PR05  20740.140830 -12166.187125  -8527.774461     92.590972
PR07 -14135.811784  -4990.600873 -20580.725483     34.874541
PR08 -23573.376373   4903.767925  -8325.147559    -65.042583
PR09   1491.396195 -25158.359988   3688.028678     54.159755
PR11 -11120.037667   1261.070004  22932.380757     39.396111
PR12  -9445.654594  19372.470985  13654.979023     18.360277
PR13  -2278.491850  25293.257599  -2416.065722    -22.068469
PR14   6726.342396  16193.869878 -18522.281894     77.382726
PR15  11327.394236  -2039.249781 -22745.038367     96.251269
PR17  18886.636366  16902.067052  -2717.035380    524.606319
PR18  19879.332177   8459.325050  13616.414292    116.293992
PR19  11406.355625  -3344.019033  22563.765390   -188.412326
PR20  -6110.690807 -16287.704917  18637.564367    -70.264123
PR21 -19371.799551 -16569.679600   1193.738390   -299.908333
PR22 -19485.904358  -7903.772859 -14382.559153   -182.124178
PR24   6905.631975  16677.804720 -18007.903811     92.948671
EOF
